{
  "type": "FeatureCollection",
  "features": [
    {
      "type": "Feature",
      "properties": {
        "name": "서울특별시",
        "name_en": "Seoul"
      },
      "geometry": {
        "type": "Polygon",
        "coordinates": [[
          [126.8, 37.4], [127.2, 37.4], [127.2, 37.7], [126.8, 37.7], [126.8, 37.4]
        ]]
      }
    },
    {
      "type": "Feature",
      "properties": {
        "name": "경기도",
        "name_en": "Gyeonggi-do"
      },
      "geometry": {
        "type": "Polygon",
        "coordinates": [[
          [126.3, 36.8], [128.0, 36.8], [128.0, 38.2], [126.3, 38.2], [126.3, 36.8]
        ]]
      }
    },
    {
      "type": "Feature",
      "properties": {
        "name": "강원도",
        "name_en": "Gangwon-do"
      },
      "geometry": {
        "type": "Polygon",
        "coordinates": [[
          [127.5, 37.0], [129.4, 37.0], [129.4, 38.6], [127.5, 38.6], [127.5, 37.0]
        ]]
      }
    },
    {
      "type": "Feature",
      "properties": {
        "name": "충청북도",
        "name_en": "Chungcheongbuk-do"
      },
      "geometry": {
        "type": "Polygon",
        "coordinates": [[
          [127.2, 36.0], [128.8, 36.0], [128.8, 37.2], [127.2, 37.2], [127.2, 36.0]
        ]]
      }
    },
    {
      "type": "Feature",
      "properties": {
        "name": "충청남도",
        "name_en": "Chungcheongnam-do"
      },
      "geometry": {
        "type": "Polygon",
        "coordinates": [[
          [125.9, 35.8], [127.5, 35.8], [127.5, 37.1], [125.9, 37.1], [125.9, 35.8]
        ]]
      }
    },
    {
      "type": "Feature",
      "properties": {
        "name": "전라북도",
        "name_en": "Jeollabuk-do"
      },
      "geometry": {
        "type": "Polygon",
        "coordinates": [[
          [126.4, 35.1], [127.9, 35.1], [127.9, 36.3], [126.4, 36.3], [126.4, 35.1]
        ]]
      }
    },
    {
      "type": "Feature",
      "properties": {
        "name": "전라남도",
        "name_en": "Jeollanam-do"
      },
      "geometry": {
        "type": "Polygon",
        "coordinates": [[
          [125.2, 33.8], [127.8, 33.8], [127.8, 35.8], [125.2, 35.8], [125.2, 33.8]
        ]]
      }
    },
    {
      "type": "Feature",
      "properties": {
        "name": "경상북도",
        "name_en": "Gyeongsangbuk-do"
      },
      "geometry": {
        "type": "Polygon",
        "coordinates": [[
          [127.8, 35.4], [129.6, 35.4], [129.6, 37.2], [127.8, 37.2], [127.8, 35.4]
        ]]
      }
    },
    {
      "type": "Feature",
      "properties": {
        "name": "경상남도",
        "name_en": "Gyeongsangnam-do"
      },
      "geometry": {
        "type": "Polygon",
        "coordinates": [[
          [127.5, 34.6], [129.3, 34.6], [129.3, 36.0], [127.5, 36.0], [127.5, 34.6]
        ]]
      }
    },
    {
      "type": "Feature",
      "properties": {
        "name": "제주특별자치도",
        "name_en": "Jeju"
      },
      "geometry": {
        "type": "Polygon",
        "coordinates": [[
          [126.1, 33.1], [126.9, 33.1], [126.9, 33.8], [126.1, 33.8], [126.1, 33.1]
        ]]
      }
    }
  ]
}